OBJECT_NAME,OBJECT_ID,EPOCH,MEAN_MOTION,ECCENTRICITY,INCLINATION,RA_OF_ASC_NODE,ARG_OF_PERICENTER,MEAN_ANOMALY,EPHEMERIS_TYPE,CLASSIFICATION_TYPE,NORAD_CAT_ID,ELEMENT_SET_NO,REV_AT_EPOCH,BSTAR,MEAN_MOTION_DOT,MEAN_MOTION_DDOT
GSAT0216 (GALILEO 20),2017-079B,2026-07-10T04:24:02.909664,1.70474478,.00048214,55.0690,220.8736,276.9654,83.0589,0,U,43056,999,5339,0,.9E-6,0
GSAT0217 (GALILEO 21),2017-079C,2026-07-07T11:18:36.053568,1.70474257,.00039099,55.0679,220.9459,293.3909,66.6394,0,U,43057,999,5333,0,.81E-6,0
GSAT0218 (GALILEO 22),2017-079D,2026-07-10T00:54:14.294016,1.70474412,.00053248,55.0673,220.8729,274.1893,85.8286,0,U,43058,999,5340,0,.9E-6,0
BEIDOU-3 M7 (C27),2018-003A,2026-07-08T07:00:28.304928,1.86228392,.00044807,54.3078,301.5795,98.0554,262.0167,0,U,43107,999,5774,0,-.66E-6,0
BEIDOU-3 M8 (C28),2018-003B,2026-07-08T18:33:40.459680,1.86231270,.00029693,54.3003,301.5443,259.3188,100.6682,0,U,43108,999,5776,0,-.67E-6,0
BEIDOU-3 M4 (C22),2018-018A,2026-07-09T05:11:48.610176,1.86231289,.00074518,56.6695,62.4232,27.0814,333.0189,0,U,43207,999,5715,0,-.47E-6,0
BEIDOU-3 M3 (C21),2018-018B,2026-07-06T14:21:28.890720,1.86231254,.00078802,56.6666,62.5134,344.5989,15.4415,0,U,43208,999,5710,0,-.41E-6,0
BEIDOU-3 M9 (C29),2018-029A,2026-07-08T10:14:58.765056,1.86228291,.00010953,54.1736,299.2068,182.3611,177.6623,0,U,43245,999,5629,0,-.63E-6,0
BEIDOU-3 M10 (C30),2018-029B,2026-07-08T08:40:17.648832,1.86229516,.00033385,54.1715,299.2350,36.6735,323.3733,0,U,43246,999,5627,0,-.63E-6,0
IRNSS-1I,2018-035A,2026-07-06T20:05:50.528832,1.00279237,.00180874,28.7973,73.8917,180.4002,27.0525,0,U,43286,999,3027,0,.79E-6,0
COSMOS 2527 (756),2018-053A,2026-07-09T03:21:36.783648,2.13102220,.00066656,65.5893,73.1758,231.8684,128.1313,0,U,43508,999,6274,0,-.24E-6,0
BEIDOU-2 IGSO-7 (C16),2018-057A,2026-07-01T21:23:21.693984,1.00246939,.01049468,55.1981,162.9292,237.8611,308.6338,0,U,43539,999,2927,0,-.33E-6,0
GSAT0221 (GALILEO 25),2018-060A,2026-07-09T22:36:05.857344,1.70476012,.0002608,57.1621,341.1668,288.2741,71.6944,0,U,43564,999,4955,0,-.79E-6,0
GSAT0222 (GALILEO 26),2018-060B,2026-07-08T23:43:05.546496,1.70475769,.00026268,57.1651,341.1962,236.6696,123.3045,0,U,43565,999,4958,0,-.75E-6,0
GSAT0219 (GALILEO 23),2018-060C,2026-07-09T05:01:07.936896,1.70476041,.00017911,57.1645,341.1918,303.0651,56.9164,0,U,43566,999,4956,0,-.76E-6,0
GSAT0220 (GALILEO 24),2018-060D,2026-07-10T00:24:02.810880,1.70475701,.00021102,57.1639,341.1705,293.5002,66.4744,0,U,43567,999,4956,0,-.79E-6,0
BEIDOU-3 M5 (C23),2018-062A,2026-07-08T14:02:48.675840,1.86228617,.00057129,54.0866,181.5769,292.3518,67.5967,0,U,43581,999,5403,0,.121E-5,0
BEIDOU-3 M6 (C24),2018-062B,2026-07-07T08:59:54.178368,1.86227975,.00050882,54.0860,181.6071,9.1977,350.8186,0,U,43582,999,5401,0,.119E-5,0
BEIDOU-3 M12 (C26),2018-067A,2026-07-09T23:57:20.896128,1.86227772,.00079059,54.1817,180.2667,30.5943,329.4569,0,U,43602,999,5354,0,.111E-5,0
BEIDOU-3 M11 (C25),2018-067B,2026-07-10T03:11:55.832640,1.86227244,.00046186,54.1791,180.2259,13.9452,346.0721,0,U,43603,999,5357,0,.11E-5,0
BEIDOU-3 M13 (C32),2018-072A,2026-07-07T22:33:50.636160,1.86231557,.0006453,56.6422,61.9754,332.0824,27.9450,0,U,43622,999,5304,0,-.45E-6,0
BEIDOU-3 M14 (C33),2018-072B,2026-07-08T08:13:17.910624,1.86231219,.00055201,56.6446,61.9559,10.5134,349.5598,0,U,43623,999,5304,0,-.46E-6,0
BEIDOU-3 M16 (C35),2018-078A,2026-07-07T10:10:07.711968,1.86232245,.00067519,54.0702,299.2766,40.2464,319.8292,0,U,43647,999,5253,0,-.62E-6,0
BEIDOU-3 M15 (C34),2018-078B,2026-07-06T11:29:52.466208,1.86232415,.00037704,54.0667,299.3099,58.5392,301.5247,0,U,43648,999,5253,0,-.6E-6,0
BEIDOU-3 G1 (C59),2018-085A,2026-07-10T05:48:42.940224,1.00272939,.00081988,2.9232,96.7668,355.1748,83.3480,0,U,43683,999,2829,0,-.101E-5,0
COSMOS 2529 (757),2018-086A,2026-07-10T04:11:44.716704,2.13102033,.00121125,64.2967,191.8180,256.3203,103.5775,0,U,43687,999,5977,0,.122E-5,0
BEIDOU-3 M17 (C36),2018-093A,2026-07-09T08:36:45.180000,1.86228235,.0010162,54.1700,181.5443,293.4624,88.7509,0,U,43706,999,5195,0,.118E-5,0
BEIDOU-3 M18 (C37),2018-093B,2026-07-10T06:18:55.393632,1.86226366,.00080333,54.1710,181.5060,322.2689,37.6812,0,U,43707,999,5196,0,.11E-5,0
GPS BIII-1  (PRN 04),2018-109A,2026-07-10T04:32:39.694848,2.00562552,.00385279,55.6952,91.2795,197.3237,335.0463,0,U,43873,999,5553,0,-.35E-6,0
BEIDOU-3 IGSO-1 (C38),2019-023A,2026-07-08T11:34:14.074176,1.00285216,.00255829,58.7247,37.4318,224.0549,317.4664,0,U,44204,999,742,0,-.209E-5,0
BEIDOU-2 G8 (C01),2019-027A,2026-07-10T07:26:57.840288,1.00273453,.00098224,1.7130,74.5112,283.4901,186.4833,0,U,44231,999,2631,0,-.238E-5,0
